HELIOS 2A               
1 28492U 04049A   22260.52868502  .00001140  00000+0  11463-3 0  9993
2 28492  98.2396 207.8844 0015007 135.4261 224.8163 14.93325207948869
CFESAT                  
1 30777U 07006F   22260.46786030  .00112008  00000+0  91152-3 0  9995
2 30777  35.4176  46.4285 0001467  40.7491 319.3355 15.69341081863570
SPIRALE A               
1 33751U 09008C   22260.34879265  .00000183  00000+0  74060-3 0  9993
2 33751   1.9731 168.3040 5444488  59.0322 343.3338  4.58864860199030
SPIRALE B               
1 33752U 09008D   22259.12087718  .00003321  00000+0  84650-3 0  9995
2 33752   2.1965  65.0728 6856406 250.4757  28.3444  2.82959346127641
SAPPHIRE                
1 39088U 13009C   22260.49970717  .00000070  00000+0  40248-4 0  9995
2 39088  98.4247  93.9481 0011579   9.1870 350.9525 14.34322139500316
